NORAD_CAT_ID,OBJECT_NAME,OBJECT_TYPE,EPOCH,MEAN_MOTION,ECCENTRICITY,INCLINATION,RA_OF_ASC_NODE,ARG_OF_PERICENTER,MEAN_ANOMALY,BSTAR,MEAN_MOTION_DOT,MEAN_MOTION_DDOT,TLE_LINE0,TLE_LINE1,TLE_LINE2,SEMIMAJOR_AXIS,PERIOD,APOGEE,PERIGEE,DECAYED
55784.0,STARLINK-5797,PAYLOAD,2024-06-19 14:35:45,14.98320334,0.0003008,69.9999,348.1551,272.8418,87.2397,7.6142e-05,8.15e-06,0.0,0 STARLINK-5797,1 55784U 23028AV  24171.60816713  .00000815  00000-0  76142-4 0  9999,2 55784  69.9999 348.1551 0003008 272.8418  87.2397 14.98320334 72947,6950.223,96.108,574.178,569.997,0.0
55784.0,STARLINK-5797,PAYLOAD,2024-06-19 21:00:17,14.98322972,0.0002984,70.0,347.4819,272.4301,87.6517,9.6535e-05,1.059e-05,0.0,0 STARLINK-5797,1 55784U 23028AV  24171.87520613  .00001059  00000-0  96535-4 0  9998,2 55784  70.0000 347.4819 0002984 272.4301  87.6517 14.98322972 72983,6950.215,96.107,574.154,570.006,0.0
55784.0,STARLINK-5797,PAYLOAD,2024-06-20 14:37:44,14.98348308,0.0002987,70.0004,345.6302,269.5722,90.5095,0.00018933,2.168e-05,0.0,0 STARLINK-5797,1 55784U 23028AV  24172.60954588  .00002168  00000-0  18933-3 0  9999,2 55784  70.0004 345.6302 0002987 269.5722  90.5095 14.98348308 73099,6950.136,96.106,574.077,569.925,0.0
55784.0,STARLINK-5797,PAYLOAD,2024-06-20 21:02:16,14.98356765,0.0003104,70.0,344.9565,267.9833,92.0971,0.00026019,3.015e-05,0.0,0 STARLINK-5797,1 55784U 23028AV  24172.87657442  .00003015  00000-0  26019-3 0  9993,2 55784  70.0000 344.9565 0003104 267.9833  92.0971 14.98356765 73136,6950.11,96.105,574.132,569.818,0.0
55784.0,STARLINK-5797,PAYLOAD,2024-06-21 13:03:38,14.98324062,0.0003485,70.0,343.2736,276.2819,83.7943,-6.3882e-05,-8.55e-06,0.0,0 STARLINK-5797,1 55784U 23028AV  24173.54420079 -.00000855  00000-0 -63882-4 0  9993,2 55784  70.0000 343.2736 0003485 276.2819  83.7943 14.98324062 73239,6950.211,96.107,574.498,569.654,0.0
55784.0,STARLINK-5797,PAYLOAD,2024-06-21 14:39:47,14.98323466,0.0003394,69.9998,343.1052,275.6376,84.4396,-7.2996e-05,-9.64e-06,0.0,0 STARLINK-5797,1 55784U 23028AV  24173.61096148 -.00000964  00000-0 -72996-4 0  9994,2 55784  69.9998 343.1052 0003394 275.6376  84.4396 14.98323466 73240,6950.213,96.107,574.437,569.719,0.0
55784.0,STARLINK-5797,PAYLOAD,2024-06-21 21:04:19,14.98324205,0.000341,69.9994,342.4313,274.7992,85.2777,-9.8313e-05,-1.266e-05,0.0,0 STARLINK-5797,1 55784U 23028AV  24173.87800180 -.00001266  00000-0 -98313-4 0  9998,2 55784  69.9994 342.4313 0003410 274.7992  85.2777 14.98324205 73289,6950.211,96.107,574.446,569.706,0.0
55784.0,STARLINK-5797,PAYLOAD,2024-06-22 13:05:40,14.98329089,0.0003301,69.9996,340.7487,273.3639,86.7142,-0.00026167,-3.214e-05,0.0,0 STARLINK-5797,1 55784U 23028AV  24174.54560537 -.00003214  00000-0 -26167-3 0  9994,2 55784  69.9996 340.7487 0003301 273.3639  86.7142 14.98329089 73384,6950.196,96.107,574.355,569.766,0.0
55784.0,STARLINK-5797,PAYLOAD,2024-06-22 14:41:48,14.98328804,0.0003298,69.9998,340.5805,273.1499,86.9283,-0.00025365,-3.118e-05,0.0,0 STARLINK-5797,1 55784U 23028AV  24174.61236534 -.00003118  00000-0 -25365-3 0  9991,2 55784  69.9998 340.5805 0003298 273.1499  86.9283 14.98328804 73398,6950.197,96.107,574.354,569.769,0.0
55784.0,STARLINK-5797,PAYLOAD,2024-06-22 21:06:20,14.98334961,0.0003273,69.9998,339.9072,271.527,88.5514,-0.00025197,-3.099e-05,0.0,0 STARLINK-5797,1 55784U 23028AV  24174.87940085 -.00003099  00000-0 -25197-3 0  9993,2 55784  69.9998 339.9072 0003273 271.5270  88.5514 14.98334961 73439,6950.178,96.107,574.317,569.768,0.0
55784.0,STARLINK-5797,PAYLOAD,2024-06-23 14:43:48,14.98321952,0.0003219,70.0,338.0549,275.2131,84.866,0.00011419,1.269e-05,0.0,0 STARLINK-5797,1 55784U 23028AV  24175.61376043  .00001269  00000-0  11419-3 0  9990,2 55784  70.0000 338.0549 0003219 275.2131  84.8660 14.98321952 73541,6950.218,96.108,574.32,569.846,0.0
55784.0,STARLINK-5797,PAYLOAD,2024-06-23 21:08:20,14.98326427,0.0003152,70.0002,337.3817,275.1187,84.9612,0.00015771,1.789e-05,0.0,0 STARLINK-5797,1 55784U 23028AV  24175.88079752  .00001789  00000-0  15771-3 0  9998,2 55784  70.0002 337.3817 0003152 275.1187  84.9612 14.98326427 73583,6950.204,96.107,574.26,569.878,0.0
55784.0,STARLINK-5797,PAYLOAD,2024-06-24 13:09:43,14.98311263,0.000238,70.0018,335.6991,262.4894,97.5994,-3.8635e-05,-5.54e-06,0.0,0 STARLINK-5797,1 55784U 23028AV  24176.54841835 -.00000554  00000-0 -38635-4 0  9997,2 55784  70.0018 335.6991 0002380 262.4894  97.5994 14.98311263 73686,6950.251,96.108,573.77,570.462,0.0
55784.0,STARLINK-5797,PAYLOAD,2024-06-24 14:45:51,14.98311238,0.0002563,70.0008,335.53,261.6755,98.4113,-6.3835e-05,-8.54e-06,0.0,0 STARLINK-5797,1 55784U 23028AV  24176.61517952 -.00000854  00000-0 -63835-4 0  9998,2 55784  70.0008 335.5300 0002563 261.6755  98.4113 14.98311238 73694,6950.251,96.108,573.897,570.335,0.0
55784.0,STARLINK-5797,PAYLOAD,2024-06-24 21:10:24,14.98306581,0.0002629,70.0014,334.8576,266.6309,93.4549,-9.5732e-05,-1.234e-05,0.0,0 STARLINK-5797,1 55784U 23028AV  24176.88222731 -.00001234  00000-0 -95732-4 0  9999,2 55784  70.0014 334.8576 0002629 266.6309  93.4549 14.98306581 73739,6950.265,96.109,573.958,570.303,0.0
55784.0,STARLINK-5797,PAYLOAD,2024-06-25 13:11:44,14.98327552,0.0002827,70.0009,333.1741,261.7755,98.3083,-2.3751e-05,-3.76e-06,0.0,0 STARLINK-5797,1 55784U 23028AV  24177.54981617 -.00000376  00000-0 -23751-4 0  9996,2 55784  70.0009 333.1741 0002827 261.7755  98.3083 14.98327552 73839,6950.2,96.107,574.03,570.101,0.0
55784.0,STARLINK-5797,PAYLOAD,2024-06-25 14:47:52,14.98327603,0.0002833,70.001,333.006,262.2371,97.8467,-2.1954e-05,-3.55e-06,0.0,0 STARLINK-5797,1 55784U 23028AV  24177.61657632 -.00000355  00000-0 -21954-4 0  9991,2 55784  70.0010 333.0060 0002833 262.2371  97.8467 14.98327603 73849,6950.2,96.107,574.034,570.096,0.0
55784.0,STARLINK-5797,PAYLOAD,2024-06-25 19:36:16,14.98330004,0.0003216,70.0002,332.5001,272.8259,87.2532,2.1958e-05,1.69e-06,0.0,0 STARLINK-5797,1 55784U 23028AV  24177.81685437  .00000169  00000-0  21958-4 0  9992,2 55784  70.0002 332.5001 0003216 272.8259  87.2532 14.98330004 73875,6950.193,96.107,574.293,569.823,0.0
55784.0,STARLINK-5797,PAYLOAD,2024-06-26 11:37:36,14.98334073,0.0003354,69.9999,330.8163,269.9195,90.1579,0.00026033,3.015e-05,0.0,0 STARLINK-5797,1 55784U 23028AV  24178.48444447  .00003015  00000-0  26033-3 0  9991,2 55784  69.9999 330.8163 0003354 269.9195  90.1579 14.98334073 73971,6950.18,96.107,574.376,569.714,0.0
55784.0,STARLINK-5797,PAYLOAD,2024-06-27 13:15:44,14.98339195,0.0003281,69.9982,328.119,269.9963,90.082,1.3475e-06,-7.7e-07,0.0,0 STARLINK-5797,1 55784U 23028AV  24179.55260376 -.00000077  00000-0  13475-5 0  9991,2 55784  69.9982 328.1190 0003281 269.9963  90.0820 14.98339195 74132,6950.164,96.106,574.31,569.749,0.0
55784.0,STARLINK-5797,PAYLOAD,2024-06-27 19:40:17,14.98331256,0.0002958,70.0009,327.4489,263.9296,96.1526,2.3415e-05,1.86e-06,0.0,0 STARLINK-5797,1 55784U 23028AV  24179.81964785  .00000186  00000-0  23415-4 0  9999,2 55784  70.0009 327.4489 0002958 263.9296  96.1526 14.98331256 74175,6950.189,96.107,574.11,569.998,0.0
55784.0,STARLINK-5797,PAYLOAD,2024-06-28 13:17:45,14.98340904,0.0003311,70.0004,325.5974,267.2414,92.8366,-7.8784e-05,-1.033e-05,0.0,0 STARLINK-5797,1 55784U 23028AV  24180.55399884 -.00001033  00000-0 -78784-4 0  9997,2 55784  70.0004 325.5974 0003311 267.2414  92.8366 14.98340904 74288,6950.159,96.106,574.325,569.723,0.0
55784.0,STARLINK-5797,PAYLOAD,2024-06-28 14:53:53,14.9833687,0.00036,70.0004,325.4291,265.9031,94.1716,-5.83e-06,-1.63e-06,0.0,0 STARLINK-5797,1 55784U 23028AV  24180.62075836 -.00000163  00000-0 -58300-5 0  9999,2 55784  70.0004 325.4291 0003600 265.9031  94.1716 14.98336870 74292,6950.172,96.107,574.539,569.535,0.0
55784.0,STARLINK-5797,PAYLOAD,2024-06-28 19:42:16,14.9834874,0.0003211,70.0006,324.924,268.0238,92.0554,7.0625e-07,-8.5e-07,0.0,0 STARLINK-5797,1 55784U 23028AV  24180.82102995 -.00000085  00000-0  70625-6 0  9995,2 55784  70.0006 324.9240 0003211 268.0238  92.0554 14.98348740 74323,6950.135,96.106,574.232,569.768,0.0
55784.0,STARLINK-5797,PAYLOAD,2024-06-29 10:07:30,14.98333679,0.0002594,70.0022,323.4122,259.0308,101.0559,-4.7444e-05,-6.59e-06,0.0,0 STARLINK-5797,1 55784U 23028AV  24181.42187799 -.00000659  00000-0 -47444-4 0  9996,2 55784  70.0022 323.4122 0002594 259.0308 101.0559 14.98333679 74416,6950.182,96.107,573.849,570.244,0.0
55784.0,STARLINK-5797,PAYLOAD,2024-06-29 14:55:54,14.9833073,0.0002686,70.0019,322.9074,255.2085,104.8776,-3.6311e-05,-5.26e-06,0.0,0 STARLINK-5797,1 55784U 23028AV  24181.62215868 -.00000526  00000-0 -36311-4 0  9991,2 55784  70.0019 322.9074 0002686 255.2085 104.8776 14.98330730 74444,6950.191,96.107,573.922,570.189,0.0
55784.0,STARLINK-5797,PAYLOAD,2024-06-29 19:44:18,14.98322795,0.0002969,70.0009,322.4012,265.6834,94.3985,0.00014378,1.623e-05,0.0,0 STARLINK-5797,1 55784U 23028AV  24181.82243947  .00001623  00000-0  14378-3 0  9997,2 55784  70.0009 322.4012 0002969 265.6834  94.3985 14.98322795 74471,6950.215,96.107,574.144,570.017,0.0
55784.0,STARLINK-5797,PAYLOAD,2024-06-30 18:10:11,14.98331026,0.0002901,70.0009,320.0445,266.5741,93.5086,-6.8412e-05,-9.09e-06,0.0,0 STARLINK-5797,1 55784U 23028AV  24182.75708024 -.00000909  00000-0 -68412-4 0  9999,2 55784  70.0009 320.0445 0002901 266.5741  93.5086 14.98331026 74614,6950.19,96.107,574.071,570.038,0.0
55784.0,STARLINK-5797,PAYLOAD,2024-07-01 02:10:51,14.98333707,0.0002931,70.001,319.2027,268.1353,91.9471,-9.8912e-05,-1.273e-05,0.0,0 STARLINK-5797,1 55784U 23028AV  24183.09087906 -.00001273  00000-0 -98912-4 0  9999,2 55784  70.0010 319.2027 0002931 268.1353  91.9471 14.98333707 74665,6950.181,96.107,574.084,570.009,0.0
55784.0,STARLINK-5797,PAYLOAD,2024-07-01 14:59:56,14.98327139,0.0003101,70.0011,317.8563,271.1866,88.8937,6.8493e-05,7.24e-06,0.0,0 STARLINK-5797,1 55784U 23028AV  24183.62495904  .00000724  00000-0  68493-4 0  9998,2 55784  70.0011 317.8563 0003101 271.1866  88.8937 14.98327139 74741,6950.202,96.107,574.222,569.911,0.0
